IRIDIUM 159             
1 43578U 18061K   25329.76123196  .00000037  00000+0  60448-5 0  9995
2 43578  86.3963 141.7601 0002192  87.5023 272.6423 14.34217935384227
IRIDIUM 180             
1 43922U 19002A   25329.83050337  .00000388  00000+0  13153-3 0  9996
2 43922  86.3963  78.6096 0002054  90.8895 269.2536 14.34220197359848
IRIDIUM 176             
1 43923U 19002B   25329.79960273  .00001345  00000+0  20941-3 0  9998
2 43923  86.6092  78.5958 0002373 104.1908 255.9572 14.72242280369324
IRIDIUM 168             
1 43924U 19002C   25329.82415766  .00000389  00000+0  13170-3 0  9998
2 43924  86.3965  78.6840 0002040  93.4668 266.6761 14.34220624359825
IRIDIUM 173             
1 43925U 19002D   25329.81147712  .00000391  00000+0  13272-3 0  9997
2 43925  86.3960  78.5862 0001930  94.6326 265.5091 14.34219692359800
IRIDIUM 169             
1 43926U 19002E   25329.80160520  .00000497  00000+0  15593-3 0  9994
2 43926  86.4205 110.2407 0000932 107.8677 252.2623 14.38612669360980
IRIDIUM 172             
1 43927U 19002F   25329.80513272  .00000386  00000+0  13089-3 0  9996
2 43927  86.3960  78.5961 0002083  89.2916 270.8518 14.34220269359813
IRIDIUM 175             
1 43928U 19002G   25329.65893802  .00001151  00000+0  17862-3 0  9994
2 43928  86.1519  22.0253 0002882 106.4251 253.7283 14.72247818369294
